OBJECT_NAME,OBJECT_ID,EPOCH,MEAN_MOTION,ECCENTRICITY,INCLINATION,RA_OF_ASC_NODE,ARG_OF_PERICENTER,MEAN_ANOMALY,EPHEMERIS_TYPE,CLASSIFICATION_TYPE,NORAD_CAT_ID,ELEMENT_SET_NO,REV_AT_EPOCH,BSTAR,MEAN_MOTION_DOT,MEAN_MOTION_DDOT
NETSAT-4,2020-068U,2024-01-20T10:13:28.607520,15.11468309,.0011482,97.7882,334.1653,142.2207,217.9831,0,U,46504,999,18167,.65772E-3,.11086E-3,0
NETSAT-3,2020-068V,2024-01-20T08:45:18.687168,15.11093743,.0010412,97.7852,333.7736,149.5128,210.6709,0,U,46505,999,18166,.55911E-3,.9311E-4,0
NETSAT-1,2020-068W,2024-01-20T10:07:43.061088,15.10178829,.0008543,97.7872,333.5617,157.8751,202.2848,0,U,46506,999,18165,.54283E-3,.8808E-4,0
NETSAT-2,2020-068X,2024-01-20T13:36:36.296064,15.11392843,.0007992,97.7866,333.9910,160.7650,199.3883,0,U,46507,999,18164,.61068E-3,.10257E-3,0
FLOCK 4V-16,2020-061BD,2024-01-20T04:47:13.225632,15.67357006,.0002596,97.3210,101.4633,292.8236,67.2750,0,U,46527,999,18418,.20767E-2,.229474E-2,0
FLOCK 4V-17,2020-061BF,2024-01-20T17:32:19.985568,15.62031809,.0001054,97.3183,101.4013,286.2510,73.8632,0,U,46529,999,18382,.22468E-2,.200585E-2,0
FLOCK 4V-20,2020-061BJ,2024-01-20T03:30:13.046976,15.36455432,.0002983,97.3368,94.8697,210.2501,149.8571,0,U,46612,999,18169,.57017E-3,.2023E-3,0
TIANQI-6,2020-076D,2024-01-20T06:58:59.102976,14.95721751,.0012223,35.0037,358.6857,36.6674,323.4867,0,U,46810,999,17636,.51875E-3,.5874E-4,0
FLOCK 4V-25,2020-061BP,2024-01-20T17:00:02.881152,15.64647623,.0002585,97.3156,101.2506,292.2533,67.8452,0,U,46812,999,18024,.22939E-2,.227512E-2,0
KSM1-C,2020-081B,2024-01-20T09:42:06.869952,15.06441549,.0002888,36.8960,0.9012,150.7136,209.3768,0,U,46906,999,17568,.54429E-3,.8117E-4,0
KSM1-D,2020-081C,2024-01-20T19:41:43.283040,15.06225698,.0005564,36.9002,359.0129,163.1843,196.9085,0,U,46907,999,17581,.52979E-3,.7854E-4,0
KSM1-A,2020-081H,2024-01-20T09:30:06.749280,15.06364174,.000616,36.8995,0.1824,224.0552,135.9700,0,U,46912,999,17572,.5473E-3,.8148E-4,0
R2,2020-081J,2024-01-20T07:42:57.617280,15.06528975,.0010208,36.9038,359.0497,169.3779,190.7181,0,U,46913,999,17853,.51809E-3,.7748E-4,0
KSM1-B,2020-081K,2024-01-20T08:42:58.966272,15.06191276,.0008703,36.9038,1.1629,177.0170,183.0626,0,U,46914,999,17879,.51645E-3,.765E-4,0
CORVUS BC5,2020-085C,2024-01-20T09:54:46.389888,15.71482520,.0001225,97.4948,180.5150,124.2912,235.8466,0,U,46931,999,17697,.13102E-2,.170203E-2,0
GONETS-M 20,2020-091A,2024-01-20T18:38:23.572608,12.42865727,.0019721,82.5050,128.4405,297.4576,62.4498,0,U,47227,999,14207,-.65091E-5,.9E-7,0
GONETS-M 21,2020-091B,2024-01-20T18:01:53.603040,12.42878548,.0013763,82.4976,127.7117,312.2055,47.7856,0,U,47228,999,14206,.87252E-4,.22E-6,0
GONETS-M 22,2020-091C,2024-01-20T19:19:39.309312,12.42874927,.0020712,82.5032,128.1670,290.8204,69.0657,0,U,47229,999,14206,.98907E-4,.23E-6,0
HAISI 1,2020-102B,2024-01-20T19:58:10.613856,15.42918018,.0003047,97.4263,126.1110,172.4920,187.6373,0,U,47297,999,17127,.11223E-2,.49494E-3,0
CAPE-3,2021-002A,2024-01-20T01:13:24.763584,15.80413290,.0021631,60.6621,286.7351,72.6058,287.7419,0,U,47309,999,16799,.16226E-2,.326931E-2,0
RADFXSAT-2 (AO-109),2021-002C,2024-01-20T06:03:54.325440,15.61343320,.0027463,60.6733,292.9713,66.6283,293.7706,0,U,47311,999,16788,.11579E-2,.102303E-2,0
CP12 (EXOCUBE 2),2021-002L,2024-01-20T07:01:09.715584,15.59222751,.0028627,60.6715,296.4595,66.6936,293.7176,0,U,47319,999,16779,.11518E-2,.93811E-3,0
UVSQ-SAT,2021-006AB,2024-01-20T14:26:19.768416,15.34417774,.0008645,97.3536,80.5725,36.8206,323.3629,0,U,47438,999,16586,.90114E-3,.30074E-3,0
YUSAT-1,2021-006AC,2024-01-20T15:04:20.789760,15.41193132,.0007543,97.3537,82.7287,28.7634,331.4028,0,U,47439,999,16600,.12477E-2,.52022E-3,0
2021-006AE,2021-006AE,2024-01-20T18:00:06.772896,15.44809253,.0006949,97.3396,82.8653,28.5756,331.5872,0,U,47441,999,16605,.13125E-2,.61845E-3,0
SOMP2B,2021-006AJ,2024-01-20T17:30:10.222272,15.33017939,.0008798,97.3507,79.5298,43.2988,316.8944,0,U,47445,999,16583,.90999E-3,.29056E-3,0
CUBEL,2021-006AM,2024-01-20T17:34:09.355872,15.19067092,.0012306,97.3681,75.9358,60.3652,299.8807,0,U,47448,999,16546,.29962E-3,.6227E-4,0
FLOCK 4S-21,2021-006AV,2024-01-20T17:15:46.870272,15.39662636,.0007226,97.3595,84.7635,24.2896,335.8689,0,U,47456,999,16608,.7851E-3,.31008E-3,0
IDEASSAT,2021-006AX,2024-01-20T13:57:12.693888,15.31650789,.0008444,97.3604,80.1420,43.7114,316.4795,0,U,47458,999,16577,.9119E-3,.27892E-3,0
NASA PTD-1,2021-006BX,2024-01-20T03:55:04.730016,15.85766997,.0000918,97.3658,89.0319,251.0892,109.0279,0,U,47482,999,16627,.27519E-2,.721509E-2,0
ASTROCAST-0103,2021-006CC,2024-01-20T02:27:36.228096,15.22860666,.000965,97.3759,76.4413,78.9797,281.2525,0,U,47487,999,16543,.52226E-3,.12185E-3,0
