NETSAT-4                
1 46504U 20068U   24020.42602555  .00011086  00000+0  65772-3 0  9997
2 46504  97.7882 334.1653 0011482 142.2207 217.9831 15.11468309181673
NETSAT-3                
1 46505U 20068V   24020.36479962  .00009311  00000+0  55911-3 0  9997
2 46505  97.7852 333.7736 0010412 149.5128 210.6709 15.11093743181661
NETSAT-1                
1 46506U 20068W   24020.42202617  .00008808  00000+0  54283-3 0  9997
2 46506  97.7872 333.5617 0008543 157.8751 202.2848 15.10178829181654
NETSAT-2                
1 46507U 20068X   24020.56708676  .00010257  00000+0  61068-3 0  9999
2 46507  97.7866 333.9910 0007992 160.7650 199.3883 15.11392843181645
FLOCK 4V-16             
1 46527U 20061BD  24020.19945863  .00229474  00000+0  20767-2 0  9997
2 46527  97.3210 101.4633 0002596 292.8236  67.2750 15.67357006184189
FLOCK 4V-17             
1 46529U 20061BF  24020.73078687  .00200585  00000+0  22468-2 0  9992
2 46529  97.3183 101.4013 0001054 286.2510  73.8632 15.62031809183829
FLOCK 4V-20             
1 46612U 20061BJ  24020.14598434  .00020230  00000+0  57017-3 0  9993
2 46612  97.3368  94.8697 0002983 210.2501 149.8571 15.36455432181691
TIANQI-6                
1 46810U 20076D   24020.29096184  .00005874  00000+0  51875-3 0  9993
2 46810  35.0037 358.6857 0012223  36.6674 323.4867 14.95721751176361
FLOCK 4V-25             
1 46812U 20061BP  24020.70836668  .00227512  00000+0  22939-2 0  9997
2 46812  97.3156 101.2506 0002585 292.2533  67.8452 15.64647623180246
KSM1-C                  
1 46906U 20081B   24020.40424618  .00008117  00000+0  54429-3 0  9996
2 46906  36.8960   0.9012 0002888 150.7136 209.3768 15.06441549175681
KSM1-D                  
1 46907U 20081C   24020.82063985  .00007854  00000+0  52979-3 0  9994
2 46907  36.9002 359.0129 0005564 163.1843 196.9085 15.06225698175817
KSM1-A                  
1 46912U 20081H   24020.39591145  .00008148  00000+0  54730-3 0  9990
2 46912  36.8995   0.1824 0006160 224.0552 135.9700 15.06364174175726
R2                      
1 46913U 20081J   24020.32150020  .00007748  00000+0  51809-3 0  9996
2 46913  36.9038 359.0497 0010208 169.3779 190.7181 15.06528975178533
KSM1-B                  
1 46914U 20081K   24020.36318248  .00007650  00000+0  51645-3 0  9999
2 46914  36.9038   1.1629 0008703 177.0170 183.0626 15.06191276178791
CORVUS BC5              
1 46931U 20085C   24020.41303692  .00170203  00000+0  13102-2 0  9995
2 46931  97.4948 180.5150 0001225 124.2912 235.8466 15.71482520176976
GONETS-M 20             
1 47227U 20091A   24020.77666172  .00000009  00000+0 -65091-5 0  9999
2 47227  82.5050 128.4405 0019721 297.4576  62.4498 12.42865727142079
GONETS-M 21             
1 47228U 20091B   24020.75131485  .00000022  00000+0  87252-4 0  9998
2 47228  82.4976 127.7117 0013763 312.2055  47.7856 12.42878548142064
GONETS-M 22             
1 47229U 20091C   24020.80531608  .00000023  00000+0  98907-4 0  9996
2 47229  82.5032 128.1670 0020712 290.8204  69.0657 12.42874927142060
HAISI 1                 
1 47297U 20102B   24020.83206729  .00049494  00000+0  11223-2 0  9999
2 47297  97.4263 126.1110 0003047 172.4920 187.6373 15.42918018171275
CAPE-3                  
1 47309U 21002A   24020.05098106  .00326931  00000+0  16226-2 0  9997
2 47309  60.6621 286.7351 0021631  72.6058 287.7419 15.80413290167992
RADFXSAT-2 (AO-109)     
1 47311U 21002C   24020.25271210  .00102303  00000+0  11579-2 0  9992
2 47311  60.6733 292.9713 0027463  66.6283 293.7706 15.61343320167881
CP12 (EXOCUBE 2)        
1 47319U 21002L   24020.29247356  .00093811  00000+0  11518-2 0  9994
2 47319  60.6715 296.4595 0028627  66.6936 293.7176 15.59222751167796
UVSQ-SAT                
1 47438U 21006AB  24020.60161769  .00030074  00000+0  90114-3 0  9990
2 47438  97.3536  80.5725 0008645  36.8206 323.3629 15.34417774165863
YUSAT-1                 
1 47439U 21006AC  24020.62801840  .00052022  00000+0  12477-2 0  9996
2 47439  97.3537  82.7287 0007543  28.7634 331.4028 15.41193132166000
2021-006AE              
1 47441U 21006AE  24020.75007839  .00061845  00000+0  13125-2 0  9993
2 47441  97.3396  82.8653 0006949  28.5756 331.5872 15.44809253166050
SOMP2B                  
1 47445U 21006AJ  24020.72928498  .00029056  00000+0  90999-3 0  9990
2 47445  97.3507  79.5298 0008798  43.2988 316.8944 15.33017939165832
CUBEL                   
1 47448U 21006AM  24020.73205273  .00006227  00000+0  29962-3 0  9990
2 47448  97.3681  75.9358 0012306  60.3652 299.8807 15.19067092165469
FLOCK 4S-21             
1 47456U 21006AV  24020.71929248  .00031008  00000+0  78510-3 0  9990
2 47456  97.3595  84.7635 0007226  24.2896 335.8689 15.39662636166087
IDEASSAT                
1 47458U 21006AX  24020.58139692  .00027892  00000+0  91190-3 0  9998
2 47458  97.3604  80.1420 0008444  43.7114 316.4795 15.31650789165770
NASA PTD-1              
1 47482U 21006BX  24020.16324919  .00721509  00000+0  27519-2 0  9996
2 47482  97.3658  89.0319 0000918 251.0892 109.0279 15.85766997166273
ASTROCAST-0103          
1 47487U 21006CC  24020.10250264  .00012185  00000+0  52226-3 0  9993
2 47487  97.3759  76.4413 0009650  78.9797 281.2525 15.22860666165430
